<?xml version="1.0" encoding="UTF-8"?>
<ndm xmlns:xsi="http://www.w3.org/2001/XMLSchema-instance" xsi:noNamespaceSchemaLocation="https://sanaregistry.org/r/ndmxml_unqualified/ndmxml-2.0.0-master-2.0.xsd">
<omm id="CCSDS_OMM_VERS" version="2.0">
<header><CREATION_DATE/><ORIGINATOR/></header><body><segment><metadata><OBJECT_NAME>KUIPER-00053</OBJECT_NAME><OBJECT_ID>2025-134P</OBJECT_ID><CENTER_NAME>EARTH</CENTER_NAME><REF_FRAME>TEME</REF_FRAME><TIME_SYSTEM>UTC</TIME_SYSTEM><MEAN_ELEMENT_THEORY>SGP4</MEAN_ELEMENT_THEORY></metadata><data><meanElements><EPOCH>2025-12-24T06:39:54.645120</EPOCH><MEAN_MOTION>14.79924742</MEAN_MOTION><ECCENTRICITY>.00015373</ECCENTRICITY><INCLINATION>51.9004</INCLINATION><RA_OF_ASC_NODE>196.5593</RA_OF_ASC_NODE><ARG_OF_PERICENTER>116.3856</ARG_OF_PERICENTER><MEAN_ANOMALY>243.7264</MEAN_ANOMALY></meanElements><tleParameters><EPHEMERIS_TYPE>0</EPHEMERIS_TYPE><CLASSIFICATION_TYPE>U</CLASSIFICATION_TYPE><NORAD_CAT_ID>64513</NORAD_CAT_ID><ELEMENT_SET_NO>999</ELEMENT_SET_NO><REV_AT_EPOCH>2904</REV_AT_EPOCH><BSTAR>-.23718859E-2</BSTAR><MEAN_MOTION_DOT>-.18251E-3</MEAN_MOTION_DOT><MEAN_MOTION_DDOT>0</MEAN_MOTION_DDOT></tleParameters></data></segment></body></omm>
<omm id="CCSDS_OMM_VERS" version="2.0">
<header><CREATION_DATE/><ORIGINATOR/></header><body><segment><metadata><OBJECT_NAME>KUIPER-00054</OBJECT_NAME><OBJECT_ID>2025-134Q</OBJECT_ID><CENTER_NAME>EARTH</CENTER_NAME><REF_FRAME>TEME</REF_FRAME><TIME_SYSTEM>UTC</TIME_SYSTEM><MEAN_ELEMENT_THEORY>SGP4</MEAN_ELEMENT_THEORY></metadata><data><meanElements><EPOCH>2025-12-23T19:26:14.972928</EPOCH><MEAN_MOTION>14.79972625</MEAN_MOTION><ECCENTRICITY>.0005937</ECCENTRICITY><INCLINATION>51.8974</INCLINATION><RA_OF_ASC_NODE>193.6125</RA_OF_ASC_NODE><ARG_OF_PERICENTER>64.4780</ARG_OF_PERICENTER><MEAN_ANOMALY>295.6796</MEAN_ANOMALY></meanElements><tleParameters><EPHEMERIS_TYPE>0</EPHEMERIS_TYPE><CLASSIFICATION_TYPE>U</CLASSIFICATION_TYPE><NORAD_CAT_ID>64514</NORAD_CAT_ID><ELEMENT_SET_NO>999</ELEMENT_SET_NO><REV_AT_EPOCH>2904</REV_AT_EPOCH><BSTAR>.33471982E-3</BSTAR><MEAN_MOTION_DOT>.2333E-4</MEAN_MOTION_DOT><MEAN_MOTION_DDOT>0</MEAN_MOTION_DDOT></tleParameters></data></segment></body></omm>
<omm id="CCSDS_OMM_VERS" version="2.0">
<header><CREATION_DATE/><ORIGINATOR/></header><body><segment><metadata><OBJECT_NAME>KUIPER-00055</OBJECT_NAME><OBJECT_ID>2025-134R</OBJECT_ID><CENTER_NAME>EARTH</CENTER_NAME><REF_FRAME>TEME</REF_FRAME><TIME_SYSTEM>UTC</TIME_SYSTEM><MEAN_ELEMENT_THEORY>SGP4</MEAN_ELEMENT_THEORY></metadata><data><meanElements><EPOCH>2025-12-24T04:35:14.840736</EPOCH><MEAN_MOTION>15.18106748</MEAN_MOTION><ECCENTRICITY>.00024812</ECCENTRICITY><INCLINATION>51.8895</INCLINATION><RA_OF_ASC_NODE>174.7680</RA_OF_ASC_NODE><ARG_OF_PERICENTER>232.2838</ARG_OF_PERICENTER><MEAN_ANOMALY>127.7916</MEAN_ANOMALY></meanElements><tleParameters><EPHEMERIS_TYPE>0</EPHEMERIS_TYPE><CLASSIFICATION_TYPE>U</CLASSIFICATION_TYPE><NORAD_CAT_ID>64515</NORAD_CAT_ID><ELEMENT_SET_NO>999</ELEMENT_SET_NO><REV_AT_EPOCH>2934</REV_AT_EPOCH><BSTAR>.62873946E-3</BSTAR><MEAN_MOTION_DOT>.12696E-3</MEAN_MOTION_DOT><MEAN_MOTION_DDOT>0</MEAN_MOTION_DDOT></tleParameters></data></segment></body></omm>
<omm id="CCSDS_OMM_VERS" version="2.0">
<header><CREATION_DATE/><ORIGINATOR/></header><body><segment><metadata><OBJECT_NAME>KUIPER-00056</OBJECT_NAME><OBJECT_ID>2025-134S</OBJECT_ID><CENTER_NAME>EARTH</CENTER_NAME><REF_FRAME>TEME</REF_FRAME><TIME_SYSTEM>UTC</TIME_SYSTEM><MEAN_ELEMENT_THEORY>SGP4</MEAN_ELEMENT_THEORY></metadata><data><meanElements><EPOCH>2025-12-23T20:54:10.821312</EPOCH><MEAN_MOTION>14.79870002</MEAN_MOTION><ECCENTRICITY>.0002211</ECCENTRICITY><INCLINATION>51.9017</INCLINATION><RA_OF_ASC_NODE>199.3912</RA_OF_ASC_NODE><ARG_OF_PERICENTER>71.6257</ARG_OF_PERICENTER><MEAN_ANOMALY>288.4946</MEAN_ANOMALY></meanElements><tleParameters><EPHEMERIS_TYPE>0</EPHEMERIS_TYPE><CLASSIFICATION_TYPE>U</CLASSIFICATION_TYPE><NORAD_CAT_ID>64516</NORAD_CAT_ID><ELEMENT_SET_NO>999</ELEMENT_SET_NO><REV_AT_EPOCH>2897</REV_AT_EPOCH><BSTAR>.10777E-2</BSTAR><MEAN_MOTION_DOT>.7992E-4</MEAN_MOTION_DOT><MEAN_MOTION_DDOT>0</MEAN_MOTION_DDOT></tleParameters></data></segment></body></omm>
<omm id="CCSDS_OMM_VERS" version="2.0">
<header><CREATION_DATE/><ORIGINATOR/></header><body><segment><metadata><OBJECT_NAME>KUIPER-00057</OBJECT_NAME><OBJECT_ID>2025-134T</OBJECT_ID><CENTER_NAME>EARTH</CENTER_NAME><REF_FRAME>TEME</REF_FRAME><TIME_SYSTEM>UTC</TIME_SYSTEM><MEAN_ELEMENT_THEORY>SGP4</MEAN_ELEMENT_THEORY></metadata><data><meanElements><EPOCH>2025-12-24T06:25:52.198464</EPOCH><MEAN_MOTION>14.79939033</MEAN_MOTION><ECCENTRICITY>.00098441</ECCENTRICITY><INCLINATION>51.8982</INCLINATION><RA_OF_ASC_NODE>205.1239</RA_OF_ASC_NODE><ARG_OF_PERICENTER>32.6806</ARG_OF_PERICENTER><MEAN_ANOMALY>327.4764</MEAN_ANOMALY></meanElements><tleParameters><EPHEMERIS_TYPE>0</EPHEMERIS_TYPE><CLASSIFICATION_TYPE>U</CLASSIFICATION_TYPE><NORAD_CAT_ID>64517</NORAD_CAT_ID><ELEMENT_SET_NO>999</ELEMENT_SET_NO><REV_AT_EPOCH>2892</REV_AT_EPOCH><BSTAR>.43834691E-3</BSTAR><MEAN_MOTION_DOT>.3123E-4</MEAN_MOTION_DOT><MEAN_MOTION_DDOT>0</MEAN_MOTION_DDOT></tleParameters></data></segment></body></omm>
<omm id="CCSDS_OMM_VERS" version="2.0">
<header><CREATION_DATE/><ORIGINATOR/></header><body><segment><metadata><OBJECT_NAME>KUIPER-00058</OBJECT_NAME><OBJECT_ID>2025-134U</OBJECT_ID><CENTER_NAME>EARTH</CENTER_NAME><REF_FRAME>TEME</REF_FRAME><TIME_SYSTEM>UTC</TIME_SYSTEM><MEAN_ELEMENT_THEORY>SGP4</MEAN_ELEMENT_THEORY></metadata><data><meanElements><EPOCH>2025-12-23T20:52:30.384768</EPOCH><MEAN_MOTION>14.79949444</MEAN_MOTION><ECCENTRICITY>.0004991</ECCENTRICITY><INCLINATION>51.8987</INCLINATION><RA_OF_ASC_NODE>200.8041</RA_OF_ASC_NODE><ARG_OF_PERICENTER>76.8193</ARG_OF_PERICENTER><MEAN_ANOMALY>283.3326</MEAN_ANOMALY></meanElements><tleParameters><EPHEMERIS_TYPE>0</EPHEMERIS_TYPE><CLASSIFICATION_TYPE>U</CLASSIFICATION_TYPE><NORAD_CAT_ID>64518</NORAD_CAT_ID><ELEMENT_SET_NO>999</ELEMENT_SET_NO><REV_AT_EPOCH>2895</REV_AT_EPOCH><BSTAR>.39709E-3</BSTAR><MEAN_MOTION_DOT>.2808E-4</MEAN_MOTION_DOT><MEAN_MOTION_DDOT>0</MEAN_MOTION_DDOT></tleParameters></data></segment></body></omm>
<omm id="CCSDS_OMM_VERS" version="2.0">
<header><CREATION_DATE/><ORIGINATOR/></header><body><segment><metadata><OBJECT_NAME>KUIPER-00059</OBJECT_NAME><OBJECT_ID>2025-134V</OBJECT_ID><CENTER_NAME>EARTH</CENTER_NAME><REF_FRAME>TEME</REF_FRAME><TIME_SYSTEM>UTC</TIME_SYSTEM><MEAN_ELEMENT_THEORY>SGP4</MEAN_ELEMENT_THEORY></metadata><data><meanElements><EPOCH>2025-12-24T00:14:56.527008</EPOCH><MEAN_MOTION>14.79931666</MEAN_MOTION><ECCENTRICITY>.00026916</ECCENTRICITY><INCLINATION>51.8970</INCLINATION><RA_OF_ASC_NODE>195.2393</RA_OF_ASC_NODE><ARG_OF_PERICENTER>201.4463</ARG_OF_PERICENTER><MEAN_ANOMALY>158.6387</MEAN_ANOMALY></meanElements><tleParameters><EPHEMERIS_TYPE>0</EPHEMERIS_TYPE><CLASSIFICATION_TYPE>U</CLASSIFICATION_TYPE><NORAD_CAT_ID>64519</NORAD_CAT_ID><ELEMENT_SET_NO>999</ELEMENT_SET_NO><REV_AT_EPOCH>2904</REV_AT_EPOCH><BSTAR>.31140552E-3</BSTAR><MEAN_MOTION_DOT>.2153E-4</MEAN_MOTION_DOT><MEAN_MOTION_DDOT>0</MEAN_MOTION_DDOT></tleParameters></data></segment></body></omm>
<omm id="CCSDS_OMM_VERS" version="2.0">
<header><CREATION_DATE/><ORIGINATOR/></header><body><segment><metadata><OBJECT_NAME>KUIPER-00060</OBJECT_NAME><OBJECT_ID>2025-134W</OBJECT_ID><CENTER_NAME>EARTH</CENTER_NAME><REF_FRAME>TEME</REF_FRAME><TIME_SYSTEM>UTC</TIME_SYSTEM><MEAN_ELEMENT_THEORY>SGP4</MEAN_ELEMENT_THEORY></metadata><data><meanElements><EPOCH>2025-12-23T20:57:54.569664</EPOCH><MEAN_MOTION>14.79945135</MEAN_MOTION><ECCENTRICITY>.0002571</ECCENTRICITY><INCLINATION>51.9005</INCLINATION><RA_OF_ASC_NODE>196.8830</RA_OF_ASC_NODE><ARG_OF_PERICENTER>114.3854</ARG_OF_PERICENTER><MEAN_ANOMALY>245.7377</MEAN_ANOMALY></meanElements><tleParameters><EPHEMERIS_TYPE>0</EPHEMERIS_TYPE><CLASSIFICATION_TYPE>U</CLASSIFICATION_TYPE><NORAD_CAT_ID>64520</NORAD_CAT_ID><ELEMENT_SET_NO>999</ELEMENT_SET_NO><REV_AT_EPOCH>2899</REV_AT_EPOCH><BSTAR>.13137E-3</BSTAR><MEAN_MOTION_DOT>.78E-5</MEAN_MOTION_DOT><MEAN_MOTION_DDOT>0</MEAN_MOTION_DDOT></tleParameters></data></segment></body></omm>

</ndm>
