KUIPER-00053            
1 64513U 25134P   25358.27771580 -.00018251  00000+0 -23719-2 0  9996
2 64513  51.9004 196.5593 0001537 116.3856 243.7264 14.79924742 29046
KUIPER-00054            
1 64514U 25134Q   25357.80989552  .00002333  00000+0  33472-3 0  9995
2 64514  51.8974 193.6125 0005937  64.4780 295.6796 14.79972625 29047
KUIPER-00055            
1 64515U 25134R   25358.19114399  .00012696  00000+0  62874-3 0  9999
2 64515  51.8895 174.7680 0002481 232.2838 127.7916 15.18106748 29347
KUIPER-00056            
1 64516U 25134S   25357.87095858  .00007992  00000+0  10777-2 0  9999
2 64516  51.9017 199.3912 0002211  71.6257 288.4946 14.79870002 28970
KUIPER-00057            
1 64517U 25134T   25358.26796526  .00003123  00000+0  43835-3 0  9998
2 64517  51.8982 205.1239 0009844  32.6806 327.4764 14.79939033 28922
KUIPER-00058            
1 64518U 25134U   25357.86979612  .00002808  00000+0  39709-3 0  9997
2 64518  51.8987 200.8041 0004991  76.8193 283.3326 14.79949444 28952
KUIPER-00059            
1 64519U 25134V   25358.01037647  .00002153  00000+0  31141-3 0  9994
2 64519  51.8970 195.2393 0002691 201.4463 158.6387 14.79931666 29042
KUIPER-00060            
1 64520U 25134W   25357.87354826  .00000780  00000+0  13137-3 0  9999
2 64520  51.9005 196.8830 0002571 114.3854 245.7377 14.79945135 28996
